[{"OBJECT_NAME":"STARLINK-35733","OBJECT_ID":"2025-244U","EPOCH":"2026-03-09T16:20:11.037984","MEAN_MOTION":15.30198138,"ECCENTRICITY":0.00010882,"INCLINATION":53.1564,"RA_OF_ASC_NODE":230.2687,"ARG_OF_PERICENTER":70.6872,"MEAN_ANOMALY":289.4247,"EPHEMERIS_TYPE":0,"CLASSIFICATION_TYPE":"U","NORAD_CAT_ID":66224,"ELEMENT_SET_NO":999,"REV_AT_EPOCH":2165,"BSTAR":0.00033143877,"MEAN_MOTION_DOT":9.469e-5,"MEAN_MOTION_DDOT":0},{"OBJECT_NAME":"FENGYUN 1C DEB","OBJECT_ID":"1999-025DFY","EPOCH":"2026-03-03T06:55:21.899424","MEAN_MOTION":15.25006274,"ECCENTRICITY":0.01038057,"INCLINATION":98.9901,"RA_OF_ASC_NODE":88.6648,"ARG_OF_PERICENTER":65.5781,"MEAN_ANOMALY":295.624,"EPHEMERIS_TYPE":0,"CLASSIFICATION_TYPE":"U","NORAD_CAT_ID":33687,"ELEMENT_SET_NO":999,"REV_AT_EPOCH":72733,"BSTAR":0.001670914,"MEAN_MOTION_DOT":0.00048845,"MEAN_MOTION_DDOT":0}]
